QIANFAN-81              
1 63167U 25046J   25280.94265775  .00000113  00000+0  15605-3 0  9996
2 63167  88.9809 326.6805 0012871 316.3741  43.6391 13.50984762 38609
QIANFAN-82              
1 63168U 25046K   25280.60539284  .00000171  00000+0  24636-3 0  9997
2 63168  88.9809 326.7589 0011261 327.4764  32.5692 13.50972686 38546
QIANFAN-83              
1 63169U 25046L   25280.94559101  .00000234  00000+0  28797-3 0  9997
2 63169  88.9809 326.6292 0012183 313.0889  46.9248 13.61960797 38649
QIANFAN-84              
1 63170U 25046M   25280.93010197  .00000114  00000+0  15775-3 0  9994
2 63170  88.9809 326.8583 0014079 320.8685  39.1447 13.50984950 38518
QIANFAN-85              
1 63171U 25046N   25280.92636301  .00000206  00000+0  30141-3 0  9991
2 63171  88.9808 326.7307 0011548 325.0123  35.0268 13.50969379 38584
QIANFAN-86              
1 63172U 25046P   25280.93459439  .00000032  00000+0  31247-4 0  9994
2 63172  88.9811 326.5904 0009560 331.5463  28.5165 13.50966256 38663
QIANFAN-87              
1 63173U 25046Q   25280.90575913  .00000192  00000+0  27825-3 0  9991
2 63173  88.9807 326.7075 0010125 325.1016  34.9470 13.50979357 38590
QIANFAN-88              
1 63174U 25046R   25280.92225157  .00000187  00000+0  27133-3 0  9992
2 63174  88.9809 326.6587 0010743 333.9603  26.1006 13.50972607 38628
